NORAD_CAT_ID,OBJECT_NAME,OBJECT_TYPE,EPOCH,MEAN_MOTION,ECCENTRICITY,INCLINATION,RA_OF_ASC_NODE,ARG_OF_PERICENTER,MEAN_ANOMALY,BSTAR,MEAN_MOTION_DOT,MEAN_MOTION_DDOT,TLE_LINE0,TLE_LINE1,TLE_LINE2,SEMIMAJOR_AXIS,PERIOD,APOGEE,PERIGEE,DECAYED
52269.0,STARLINK-3791,PAYLOAD,2022-10-03 13:31:54,15.08856918,0.0001924,53.2193,334.6213,42.0913,318.0226,0.00011217,1.498e-05,0.0,0 STARLINK-3791,1 52269U 22041J   22276.56382805  .00001498  00000-0  11217-3 0  9996,2 52269  53.2193 334.6213 0001924  42.0913 318.0226 15.08856918 25185,6917.829000000002,95.436,541.025,538.363,0.0
52269.0,STARLINK-3791,PAYLOAD,2022-10-04 10:11:55,15.08851724,0.0002041999999999,53.2192,330.7565,41.9323,318.1825,0.00031841,4.785e-05,0.0,0 STARLINK-3791,1 52269U 22041J   22277.42495105  .00004785  00000-0  31841-3 0  9997,2 52269  53.2192 330.7565 0002042  41.9323 318.1825 15.08851724 26532,6917.845,95.437,541.122,538.297,0.0
52269.0,STARLINK-3791,PAYLOAD,2022-10-05 05:16:33,15.08840375,0.0002169,53.2187,327.1885,44.2779,315.8386,-0.00014037,-2.522e-05,0.0,0 STARLINK-3791,1 52269U 22041J   22278.21983171 -.00002522  00000-0 -14037-3 0  9997,2 52269  53.2187 327.1885 0002169  44.2779 315.8386 15.08840375 26651,6917.879,95.438,541.245,538.244,0.0
52269.0,STARLINK-3791,PAYLOAD,2022-10-05 10:02:43,15.08841244,0.0002096,53.2192,326.2958,45.5989,314.5175,-9.1691e-06,-4.34e-06,0.0,0 STARLINK-3791,1 52269U 22041J   22278.41855495 -.00000434  00000-0 -91691-5 0  9999,2 52269  53.2192 326.2958 0002096  45.5989 314.5175 15.08841244 25460,6917.877,95.437,541.192,538.2919999999998,0.0
52269.0,STARLINK-3791,PAYLOAD,2022-10-06 11:28:53,15.08835002,0.0002131999999999,53.2204,321.5394,45.7377,314.379,-4.4014e-05,-9.89e-06,0.0,0 STARLINK-3791,1 52269U 22041J   22279.47840069 -.00000989  00000-0 -44014-4 0  9998,2 52269  53.2204 321.5394 0002132  45.7377 314.3790 15.08835002 25624,6917.896,95.438,541.236,538.286,0.0
52269.0,STARLINK-3791,PAYLOAD,2022-10-06 19:25:48,15.08843721,0.0002134999999999,53.2201,320.0521,45.6528,314.4639,5.5715e-05,5.99e-06,0.0,0 STARLINK-3791,1 52269U 22041J   22279.80959273  .00000599  00000-0  55715-4 0  9998,2 52269  53.2201 320.0521 0002135  45.6528 314.4639 15.08843721 25672,6917.869000000002,95.437,541.211,538.257,0.0
52269.0,STARLINK-3791,PAYLOAD,2022-10-07 03:22:44,15.08835538,0.0002048,53.2204,318.565,46.1215,313.9946,9.3127e-05,1.194e-05,0.0,0 STARLINK-3791,1 52269U 22041J   22280.14079842  .00001194  00000-0  93127-4 0  9993,2 52269  53.2204 318.5650 0002048  46.1215 313.9946 15.08835538 26945,6917.894,95.438,541.1759999999998,538.342,0.0
52269.0,STARLINK-3791,PAYLOAD,2022-10-07 09:44:17,15.08837796,0.0002068,53.2194,317.376,44.8608,315.2551,8.018e-05,9.88e-06,0.0,0 STARLINK-3791,1 52269U 22041J   22280.40575780  .00000988  00000-0  80180-4 0  9999,2 52269  53.2194 317.3760 0002068  44.8608 315.2551 15.08837796 25769,6917.887,95.438,541.183,538.322,0.0
52269.0,STARLINK-3791,PAYLOAD,2022-10-07 19:16:36,15.08836057,0.0002076,53.2194,315.5918,44.6242,315.4917,3.7818e-05,3.14e-06,0.0,0 STARLINK-3791,1 52269U 22041J   22280.80320098  .00000314  00000-0  37818-4 0  9996,2 52269  53.2194 315.5918 0002076  44.6242 315.4917 15.08836057 25829,6917.892,95.438,541.194,538.321,0.0
52269.0,STARLINK-3791,PAYLOAD,2022-10-08 11:10:28,15.08830816,0.0002218,53.2202,312.6181,43.5858,316.5309,4.6949e-05,4.59e-06,0.0,0 STARLINK-3791,1 52269U 22041J   22281.46560839  .00000459  00000-0  46949-4 0  9993,2 52269  53.2202 312.6181 0002218  43.5858 316.5309 15.08830816 27149,6917.908,95.438,541.308,538.239,0.0
52269.0,STARLINK-3791,PAYLOAD,2022-10-09 09:25:52,15.08838165,0.0002174,53.2201,308.4546,46.9747,313.1427,5.6195e-06,-1.99e-06,0.0,0 STARLINK-3791,1 52269U 22041J   22282.39296831 -.00000199  00000-0  56195-5 0  9991,2 52269  53.2201 308.4546 0002174  46.9747 313.1427 15.08838165 26060,6917.886,95.438,541.255,538.247,0.0
52269.0,STARLINK-3791,PAYLOAD,2022-10-09 18:58:10,15.0884384,0.0002296999999999,53.2205,306.6702,46.7537,313.3646,0.00016859,2.396e-05,0.0,0 STARLINK-3791,1 52269U 22041J   22282.79040035  .00002396  00000-0  16859-3 0  9999,2 52269  53.2205 306.6702 0002297  46.7537 313.3646 15.08843840 27342,6917.869000000002,95.437,541.323,538.145,0.0
52269.0,STARLINK-3791,PAYLOAD,2022-10-10 09:16:38,15.08849447,0.0002215,53.2186,303.9941,38.6081,321.5069,0.00013877,1.922e-05,0.0,0 STARLINK-3791,1 52269U 22041J   22283.38655685  .00001922  00000-0  13877-3 0  9999,2 52269  53.2186 303.9941 0002215  38.6081 321.5069 15.08849447 26213,6917.852,95.437,541.249,538.184,0.0
52269.0,STARLINK-3791,PAYLOAD,2022-10-10 18:48:57,15.08838113,0.0001952,53.2178,302.2108,47.2762,312.8395,0.00014033,1.946e-05,0.0,0 STARLINK-3791,1 52269U 22041J   22283.78400330  .00001946  00000-0  14033-3 0  9999,2 52269  53.2178 302.2108 0001952  47.2762 312.8395 15.08838113 26279,6917.886,95.438,541.102,538.401,0.0
52269.0,STARLINK-3791,PAYLOAD,2022-10-11 10:42:50,15.08830159,0.0002056999999999,53.2196,299.2356,47.1663,312.9502,-1.0571e-05,-4.56e-06,0.0,0 STARLINK-3791,1 52269U 22041J   22284.44641422 -.00000456  00000-0 -10571-4 0  9993,2 52269  53.2196 299.2356 0002057  47.1663 312.9502 15.08830159 26379,6917.91,95.438,541.198,538.352,0.0
52269.0,STARLINK-3791,PAYLOAD,2022-10-12 07:22:51,15.08837779,0.0002023,53.2196,295.3692,48.8836,311.2331,-8.205799999999999e-05,-1.594e-05,0.0,0 STARLINK-3791,1 52269U 22041J   22285.30753552 -.00001594  00000-0 -82058-4 0  9990,2 52269  53.2196 295.3692 0002023  48.8836 311.2331 15.08837779 26504,6917.887,95.438,541.1519999999998,538.3530000000002,0.0
52269.0,STARLINK-3791,PAYLOAD,2022-10-13 07:13:38,15.08832516,0.0002018,53.2185,290.9099,40.4051,319.709,0.00014372,1.999e-05,0.0,0 STARLINK-3791,1 52269U 22041J   22286.30113569  .00001999  00000-0  14372-3 0  9999,2 52269  53.2185 290.9099 0002018  40.4051 319.7090 15.08832516 26650,6917.903,95.438,541.164,538.372,0.0
52269.0,STARLINK-3791,PAYLOAD,2022-10-14 05:29:02,15.08841037,0.0001902,53.2188,286.7464,49.0162,311.0995,0.00012318,1.673e-05,0.0,0 STARLINK-3791,1 52269U 22041J   22287.22849577  .00001673  00000-0  12318-3 0  9993,2 52269  53.2188 286.7464 0001902  49.0162 311.0995 15.08841037 28010,6917.877,95.437,541.058,538.4259999999998,0.0
52269.0,STARLINK-3791,PAYLOAD,2022-10-14 07:04:25,15.08841364,0.0001956999999999,53.2189,286.4495,45.1859,314.9292,0.00012565,1.712e-05,0.0,0 STARLINK-3791,1 52269U 22041J   22287.29473568  .00001712  00000-0  12565-3 0  9991,2 52269  53.2189 286.4495 0001957  45.1859 314.9292 15.08841364 26802,6917.876,95.437,541.095,538.387,0.0
52269.0,STARLINK-3791,PAYLOAD,2022-10-14 16:36:44,15.08838646,0.0001981,53.2187,284.6655,42.9149,317.1998,5.5608e-05,5.97e-06,0.0,0 STARLINK-3791,1 52269U 22041J   22287.69217974  .00000597  00000-0  55608-4 0  9998,2 52269  53.2187 284.6655 0001981  42.9149 317.1998 15.08838646 26865,6917.885,95.438,541.12,538.379,0.0
52269.0,STARLINK-3791,PAYLOAD,2022-10-15 06:55:11,15.08844304,0.0001908,53.218,281.9878,35.1215,324.9903,8.216e-05,1.02e-05,0.0,0 STARLINK-3791,1 52269U 22041J   22288.28833254  .00001020  00000-0  82160-4 0  9994,2 52269  53.2180 281.9878 0001908  35.1215 324.9903 15.08844304 26952,6917.8669999999975,95.437,541.052,538.4119999999998,0.0
52269.0,STARLINK-3791,PAYLOAD,2022-10-16 08:21:22,15.08834159,0.0002066999999999,53.2186,277.231,35.5061,324.6069,-7.3278e-05,-1.454e-05,0.0,0 STARLINK-3791,1 52269U 22041J   22289.34818102 -.00001454  00000-0 -73278-4 0  9990,2 52269  53.2186 277.2310 0002067  35.5061 324.6069 15.08834159 27113,6917.898,95.438,541.193,538.3330000000002,0.0
52269.0,STARLINK-3791,PAYLOAD,2022-10-17 00:15:14,15.08829699,0.0002032999999999,53.2187,274.2571,38.0706,322.043,-0.00010256,-1.92e-05,0.0,0 STARLINK-3791,1 52269U 22041J   22290.01058750 -.00001920  00000-0 -10256-3 0  9995,2 52269  53.2187 274.2571 0002033  38.0706 322.0430 15.08829699 27215,6917.9119999999975,95.438,541.183,538.37,0.0
52269.0,STARLINK-3791,PAYLOAD,2022-10-17 16:09:05,15.08840227,0.0001893,53.2193,271.2845,37.6016,322.5109,2.952300000000001e-07,-2.83e-06,0.0,0 STARLINK-3791,1 52269U 22041J   22290.67297941 -.00000283  00000-0  29523-6 0  9994,2 52269  53.2193 271.2845 0001893  37.6016 322.5109 15.08840227 28539,6917.88,95.438,541.054,538.435,0.0
52269.0,STARLINK-3791,PAYLOAD,2022-10-18 04:52:09,15.08845721,0.00014,53.2183,268.9046,15.9758,344.1278,7.3543e-05,8.83e-06,0.0,0 STARLINK-3791,1 52269U 22041J   22291.20289016  .00000883  00000-0  73543-4 0  9992,2 52269  53.2183 268.9046 0001400  15.9758 344.1278 15.08845721 28610,6917.863,95.437,540.696,538.759,0.0
52269.0,STARLINK-3791,PAYLOAD,2022-10-18 08:02:54,15.08862677,0.0002156,53.2188,268.3114,40.2644,319.8507,0.0003052,4.575e-05,0.0,0 STARLINK-3791,1 52269U 22041J   22291.33535133  .00004575  00000-0  30520-3 0  9999,2 52269  53.2188 268.3114 0002156  40.2644 319.8507 15.08862677 27419,6917.811,95.436,541.168,538.185,0.0
52269.0,STARLINK-3791,PAYLOAD,2022-10-18 15:59:52,15.08833448,0.0002133,53.2187,266.8244,45.7972,314.3196,0.00014696,2.051e-05,0.0,0 STARLINK-3791,1 52269U 22041J   22291.66657512  .00002051  00000-0  14696-3 0  9994,2 52269  53.2187 266.8244 0002133  45.7972 314.3196 15.08833448 27467,6917.9,95.438,541.241,538.29,0.0
52269.0,STARLINK-3791,PAYLOAD,2022-10-19 07:53:43,15.08838715,0.0001768,53.2195,263.8503,44.267,315.8464,5.4772000000000015e-06,-2.01e-06,0.0,0 STARLINK-3791,1 52269U 22041J   22292.32897654 -.00000201  00000-0  54772-5 0  9998,2 52269  53.2195 263.8503 0001768  44.2670 315.8464 15.08838715 27560,6917.884,95.438,540.972,538.526,0.0
52269.0,STARLINK-3791,PAYLOAD,2022-10-20 04:33:43,15.08854785,0.0001921999999999,53.2199,259.9851,47.379,312.7363,-0.00015884,-2.816e-05,0.0,0 STARLINK-3791,1 52269U 22041J   22293.19008850 -.00002816  00000-0 -15884-3 0  9990,2 52269  53.2199 259.9851 0001922  47.3790 312.7363 15.08854785 28914,6917.835,95.437,541.03,538.371,0.0
